STARLINK-30495          
1 57968U 23151E   26068.14863451  .00001291  00000+0  57761-4 0  9993
2 57968  43.0042 339.0612 0001337 263.7152  96.3547 15.26761318135681
FLOCK 4G-6              
1 62660U 25009BD  26068.71061311  .00012261  00000+0  45910-3 0  9991
2 62660  97.3980 150.7943 0002380 348.2637  11.8546 15.27432125121307
